[{"OBJECT_NAME":"AMOS-17","OBJECT_ID":"2019-050A","EPOCH":"2026-02-01T21:33:38.716128","MEAN_MOTION":1.00268425,"ECCENTRICITY":0.00016785,"INCLINATION":0.0163,"RA_OF_ASC_NODE":89.2285,"ARG_OF_PERICENTER":220.9179,"MEAN_ANOMALY":162.3636,"EPHEMERIS_TYPE":0,"CLASSIFICATION_TYPE":"U","NORAD_CAT_ID":44479,"ELEMENT_SET_NO":999,"REV_AT_EPOCH":2383,"BSTAR":0,"MEAN_MOTION_DOT":0,"MEAN_MOTION_DDOT":0}]
