AMOS-17                 
1 44479U 19050A   26032.89836477  .00000000  00000+0  00000+0 0  9996
2 44479   0.0163  89.2285 0001678 220.9179 162.3636  1.00268425 23837
